#dP2021  7 18  0  0  0.00000000     289 ORBIT IGS14 BHN ESOC                    
## 2167      0.00000000   300.00000000 59413 0.0000000000000                    
+  116   G13G28G21G22G07G05G20G31G17G15G16G29G12G19G02G25G01                    
+        G30G24G27G06G09G03G32G26G08G10G04G18G23G14G11R09R11                    
+        R20R19R13R01R22R16R08R03R07R02R17R18R21R05R15R12R04                    
+        R24E11E12E19E18E14E26E24E30E08E09E01E02E07E03E04E05                    
+        E21E25E27E31E36E13E15E33C11C12C14C19C20C27C28C22C21                    
+        C29C30C23C24C26C25C32C33C35C34C36C37C46C45C44C43C41                    
+        C42C06C07C08C09C10C13C16C38C39C40J01J02J03  0  0  0                    
++         5  5  5  5  5  5  5  5  5  5  5  5  5  5  5  5  5                    
++         5  5  5  5  5  9  5  5  5  6  5  5  5  5  5  7  4                    
++         6  6  5  6  7  6  5  6  5  5  5  5  5  6  5  5  5                    
++         5  5  5  5  5  5  5  5  5  5  5  5  5  5  5  5  5                    
++         5  5  5  5  5  5  5  5  5  5  5  6  6  6  6  5  5                    
++         5  5  5  5  5  5  6  5  5  5  5  5  5  6  5  5  6                    
++         6  6  6  6  6  6  7  6  8  7  7  7  7  6  0  0  0                    
%c M  cc GPS ccc cccc cccc cccc cccc ccccc ccccc ccccc ccccc                    
%c cc cc ccc ccc cccc cccc cccc cccc ccccc ccccc ccccc ccccc                    
%f  0.0000000  0.000000000  0.00000000000  0.000000000000000                    
%f  0.0000000  0.000000000  0.00000000000  0.000000000000000                    
%i    0    0    0    0      0      0      0      0         0                    
%i    0    0    0    0      0      0      0      0         0                    
/* CCCCCCCCCCCCCCCCCCCCCCCCCCCCCCCCCCCCCCCCCCCCCCCCCCCCCCCCCCCCCCCCCCCCCCCCCCCCC
/* CCCCCCCCCCCCCCCCCCCCCCCCCCCCCCCCCCCCCCCCCCCCCCCCCCCCCCCCCCCCCCCCCCCCCCCCCCCCC
/* CCCCCCCCCCCCCCCCCCCCCCCCCCCCCCCCCCCCCCCCCCCCCCCCCCCCCCCCCCCCCCCCCCCCCCCCCCCCC
/* PCV:IGS14      OL/AL:EOT11A   NONE     YN ORB:CoN CLK:CoN                    
*  2021  7 18  5 15  0.00000000                                                 
PG13  -2655.637576  16940.042494 -20380.194296    159.166447                    
PG28 -10176.113368  19782.685369 -14104.716710    535.924252                    
PG21 -18353.691665 -15688.828196 -10922.864275    131.929209                    
PG22 -10576.347574 -22822.720963   9022.075803   -560.827858                    
PG07 -24598.015488  -5247.548047  -8912.308635    204.953887                    
PG05   6851.793259  24878.588632  -6052.172387    -48.253343                    
PG20    812.391063  25900.091059   6393.771302    520.124175                    
PG31   8775.413287 -12627.560728  21586.987903   -129.253219                    
PG17 -22833.672967  13569.032894    289.481617    475.498004                    
PG15   8989.218928  13398.790529 -21451.810347   -134.755318                    
PG16    205.363552 -26305.323070   -646.221802   -358.910149                    
PG29  22156.495548  -1429.078856  14570.447030   -381.956570                    
PG12  10414.915774  18783.647612  15463.045474    -70.170758                    
PG19 -19085.767255  16269.263009   8242.024959     27.766993                    
PG02   2252.545397  16748.340568  21131.195352   -620.340567                    
PG25  14907.251102   7186.418308  20567.389259    175.444382                    
PG01 -22024.366028 -14549.172328  -4577.782159    624.880246                    
PG30 -18612.601363   5376.135712 -18200.074759   -452.050482                    
PG24  19869.933299  15486.350731  -9277.341969    178.249018                    
PG27   4455.270906 -18282.065615 -18773.020424   -164.592549                    
PG06  -9922.755453  11348.157036  21928.383715     41.753319                    
PG09 -22601.753058   4241.480031  13250.090593   -355.877782                    
PG03 -12070.376523 -17478.315571  15920.837559   -224.071205                    
PG32  20854.185833 -16145.442484   2326.214506     13.457401                    
PG26   5266.854054 -23524.421517  10776.831862    111.909198                    
PG08  -6678.969559 -13651.250970 -21775.375196    -29.200205                    
PG10  12000.827651 -14031.120777 -18871.409441   -164.260208                    
PG04 -16221.832839  -6431.834063  20048.856195   -202.566263                    
PG18  23548.751345   2923.561376 -12025.092868    340.172074                    
PG23  15045.802380  -1613.429301 -21850.024936     83.085208                    
PG14 -12741.216234  14144.562656 -18510.198476     44.741938                    
PG11    762.351068  16912.870570  20449.506094     18.175805                    
PR09    415.948743  17692.598773 -18316.326159      3.473103                    
PR11  16403.990585  14436.090999  13161.058203     44.520784                    
PR20 -11339.698065   9119.774790  20960.141699    -52.670373                    
PR19 -24854.021304   2009.714739   5348.263007   -151.943519                    
PR13    -94.600168 -17150.122177  18874.443001    -57.878905                    
PR01  15286.611361 -12243.842118 -16349.608305     82.462993                    
PR22  23160.168105   4215.008006   9687.358045   -123.235127                    
PR16 -10671.175541   3957.210449 -22836.986062    -18.093823                    
PR08  10784.912188   2932.304124 -22871.881343    -60.011788                    
PR03    -41.655631 -17871.650218  18220.899039     39.701832                    
PR07    377.980756  17515.793662 -18520.245276    -42.001472                    
PR02  11038.416188 -22756.857311   3103.776690    486.464933                    
PR17  -8856.976865  -9775.814923 -21822.246503    442.022911                    
PR18 -22767.860470  -4534.506916 -10617.339164     83.807784                    
PR21  10209.462475   9494.684877  21360.716077   -224.717927                    
PR05 -15585.245992  13549.418727  14998.939445     75.527799                    
PR15 -16244.752515 -14238.039801 -13546.055952    102.620700                    
PR12  11276.808236  -2387.309395  22787.612836    246.217573                    
PR04 -10679.663358  -2955.741385  23003.496691     96.260595                    
PR24  10438.366365  -9880.832668 -21068.874651     50.896662                    
PE11 -25958.277097 -12200.969093  -7353.538245   5704.526075                    
PE12  -8841.920995 -17502.796089 -22185.387302   5105.554167                    
PE19  19430.086992 -22075.077999   3385.216026    329.629865                    
PE18 -16530.744724  16272.432293   7373.953509  -1648.579647                    
PE14  14518.644664 -23605.292775 -15841.614077  -1504.115128                    
PE26  27084.253636   -596.723954 -11939.015893   1566.441503                    
PE24 -15971.192189 -18852.125465 -16293.409540  -1013.897308                    
PE30   5980.189036  28952.921970  -1558.156536   2775.094831                    
PE08   -978.293491  21146.291969 -20678.316428   5968.577481                    
PE09 -16488.471060  -6924.283529  23590.814182   5596.696351                    
PE01   7161.320386 -22233.611158  18187.747953  -1152.459104                    
PE02  -7062.441476  22344.640425 -18085.750951    233.678689                    
PE07  16443.270933   7234.131505 -23518.859834   -562.994495                    
PE03 -17974.671240  22846.031181  -5531.751845   -453.871988                    
PE04   1335.671169 -21395.068035  20422.752335   -815.703721                    
PE05 -24332.953570  10900.990842  12854.476783   -264.332828                    
PE21  16180.981848  -3551.363792  24534.335983   -676.865561                    
PE25 -16232.700153   3303.155512 -24520.113819   -540.351206                    
PE27  16279.716395  17994.111183  16962.018152    -78.093462                    
PE31  -6792.052411 -28807.126130    550.155882   -483.379628                    
PE36 -27400.479310     18.752094  11199.048268   -235.954445                    
PE13  25776.320352  12299.625977   7769.037049    419.160482                    
PE15   8939.414102  17400.462910  22212.536484    802.894254                    
PE33  13115.259248 -12245.282735 -23543.837964   -467.534220                    
PC11  22606.233284   6069.273667  15283.182429    464.136501                    
PC12   5258.528622  14557.508543  23248.017517    808.237702                    
PC14  12898.924053  10520.124833 -22366.122868    796.912079                    
PC19 -16488.043453    438.141036  22531.290057    913.114885                    
PC20  -8203.505744 -18244.189308  19486.026170   -842.078611                    
PC27   5547.039707 -16445.158808 -21873.117069    566.120566                    
PC28  23079.337951 -11748.867226 -10409.887521    -49.350499                    
PC22 -15515.737635  19465.166141  12582.543781   -948.456132                    
PC21  -5491.647061  26957.303340  -4577.624319   -936.022642                    
PC29 -26955.230215   1178.921320  -7135.613244    420.956998                    
PC30 -15037.295044 -11217.439624 -20674.251305    474.384491                    
PC23  13573.465887  -9114.760336  22627.395205   -968.580704                    
PC24  17139.322052  21919.409011  -2267.538118   -944.752796                    
PC26   3885.359402  21921.096575 -16849.933789    877.156294                    
PC25  22090.406441   7991.281879  15076.686382   -884.233421                    
PC32   5284.132121 -27025.317672   4585.497866   -925.113238                    
PC33  16494.289663   -482.077550 -22502.064448   -944.364908                    
PC35 -22913.795132  12393.126529  10037.192655   -182.082525                    
PC34  15741.110084  10878.562054  20292.199754   -625.635237                    
PC36 -21932.448795  -8865.611276 -14772.958562   -733.917174                    
PC37  -2482.990628 -21633.100076  17468.471084   -864.469553                    
PC46 -17758.398166 -21468.706904   1253.309707    173.827062                    
PC45 -13336.611565   9201.168100 -22708.144196    496.386697                    
PC44  -5245.334014  16745.186582  21691.946539    295.027208                    
PC43  26833.671892   -656.139914   7586.688514   -826.495265                    
PC41  15549.630059 -19301.320269 -12774.625653   -961.875637                    
PC42   7733.575567  18876.523252 -18990.899124   -920.796512                    
PC06 -22910.967901  25046.671145 -24844.485923    638.789273                    
PC07 -13328.918339  38583.711581  -8996.534154    109.412705                    
PC08  -4942.749084  23180.560066  35048.518683   -906.095019                    
PC09  -7328.794422  25580.525300 -32494.821126    365.517092                    
PC10  -4428.817258  41623.484379   2040.852089    -17.698199                    
PC13   6637.875280  30256.427476  28825.050060    340.650075                    
PC16 -20363.002322  25430.522885 -26758.505062   -911.899396                    
PC38  -4878.033861  25576.370527  33201.245988    162.414926                    
PC39 -17899.706011  26840.315171 -27209.624387     32.412887                    
PC40 -11451.512211  40482.572571  -1024.941863    181.550541                    
PJ01 -32806.636887  25407.053713  12261.763679   -418.144082                    
PJ02 -19981.318949  24220.395906 -23585.395570     -0.860163                    
PJ03 -29175.157906  26851.620823  19208.034536     -0.224124                    
EOF                                                                             
